{
  "norad_id": 45747,
  "name": "STARLINK-1506",
  "history": [
    {
      "epoch": "2026-05-04T18:03:52.612992Z",
      "apogee_km": 485.2407506177815,
      "perigee_km": 479.5876564260798,
      "latitude_deg": -1.613850369562447e-05,
      "longitude_deg": 169.12245448284816,
      "height_km": 482.8725611386305,
      "semi_major_axis_km": 6860.55120352193,
      "eccentricity": 0.000412,
      "inclination_deg": 53.0777,
      "raan_deg": 302.7292,
      "arg_perigee_deg": 81.3405,
      "mean_anomaly_deg": 278.806,
      "mean_motion_rev_day": 15.27792054
    },
    {
      "epoch": "2026-05-05T20:45:16.443360Z",
      "apogee_km": 485.1123129110083,
      "perigee_km": 479.5868770074276,
      "latitude_deg": 1.0895007009645163e-06,
      "longitude_deg": 122.52045252283375,
      "height_km": 482.87220416204593,
      "semi_major_axis_km": 6860.486594959218,
      "eccentricity": 0.0004027,
      "inclination_deg": 53.0776,
      "raan_deg": 297.5726,
      "arg_perigee_deg": 82.4823,
      "mean_anomaly_deg": 277.6633,
      "mean_motion_rev_day": 15.27813636
    },
    {
      "epoch": "2026-05-06T18:44:03.421824Z",
      "apogee_km": 485.0440285680579,
      "perigee_km": 479.5721375698022,
      "latitude_deg": 1.668810039190187e-05,
      "longitude_deg": 147.67594220970219,
      "height_km": 482.95430734897155,
      "semi_major_axis_km": 6860.44508306893,
      "eccentricity": 0.0003988,
      "inclination_deg": 53.0773,
      "raan_deg": 293.3265,
      "arg_perigee_deg": 85.0129,
      "mean_anomaly_deg": 275.1325,
      "mean_motion_rev_day": 15.27827503
    },
    {
      "epoch": "2026-05-07T19:51:12.418848Z",
      "apogee_km": 485.2000361126593,
      "perigee_km": 478.96821124391045,
      "latitude_deg": 1.350023367203581e-05,
      "longitude_deg": 124.99984104668629,
      "height_km": 482.1328791465708,
      "semi_major_axis_km": 6860.221123678284,
      "eccentricity": 0.0004542,
      "inclination_deg": 53.0765,
      "raan_deg": 288.4695,
      "arg_perigee_deg": 74.4645,
      "mean_anomaly_deg": 285.6855,
      "mean_motion_rev_day": 15.2790232
    }
  ]
}